L_ID,RECEIVER NAME,ADDRESS_1,ADDRESS_2,PCODE,STATE
333555,JOHN SMITH,8 BRENTWOOD STREET,BENTLEIGH,3204,VIC
365655,RUSSELL PETERS,43 PURNELL STREET,ALTONA,3018,VIC
378555,JOHN CHO,19 LORIS CLOSE,GROVEDALE,3216,VIC
312156,ANGELINA SMITH,594 ST KILDA ROAD,MELBOURNE,3004,VIC
322255,LORI GRIMES,10 CYNTHIA CLOSE,MILDURA,3500,VIC
353446,DANERYS TARGARYEN,27 SANDY CREEK,RIDDELLS CREEK,3421,VIC
366764,PETER CHAN,2 TAYLOR ROAD,HURSTBRIDGE,3099,VIC
356333,ALI KHAN,30 GARNER ROAD,WOODEND,3442,VIC
345656,HASAN LOTIA,1344 HIGH STREET ROAD,WANTIRNA SOUTH,3152,VIC
312124,MOHAMMED ALI,40 BEDDOE AVENUE,ASCOT,3364,VIC
312123,HUSSAIN IBRAHIM,10 DUNSCOMBE AVENUE,ASHBURTON,3142,VIC
234341,TAMMY ROB,38 ARMSTRONG STREET,WESTDALE,2340,NSW
254533,SRI PRAKASH,8 HALE STREET,BOTANY,2019,NSW
256564,ANAND SINGH,3212 THOMAS MITCHELL DRIVE,MUSWELLBROOK,2333,NSW
256565,QASIM LODHI,2 WHARF ROAD,MELROSE PARK,2114,NSW
256546,SAHIRA KHAN,22 SARGENTS ROAD,MINCHINBURY,2770,NSW
256676,JACKSON BIRD,12 ANZAC STREET,CHULLORA,2190,NSW
284544,STEVE SMITH,46 FLAMETREE CLOSE,TAREE,2430,NSW
214323,CHRIS HUMMER,10 FRENCH STREET,COOTAMUNDRA,2590,NSW
211144,KUNG LI,288 PACIFIC HIGHWAY,GREENWICH,2065,NSW
214633,RYU WONG,14 BARDOO AVENUE,NORTH BALGOWLAH,2093,NSW
215634,SOPHIE QUIN,11 DARIUS AVENUE,NORTH NARRABEEN,2101,NSW
214231,LISA RAY,4 QUARRYBYLONG STREET,ABERDATE,2325,NSW
212143,CRYSTAL SUMMERS,22 MT ELLIOT PLACE,MT ELLIOT,2250,NSW
212121,KIM JAY,10 LINCOLN STREET,SYDNEY,2000,NSW
358272,RICHARD HADLEE,91 QUAY STREET,BULIMBA,4171,QLD
412345,JON SMITH,27 BURRAI STREET,MORNINGSIDE,4170,QLD
412543,RUPERT EVANS,3779 PACIFIC HIGHWAY,TANNA MERAH,4128,QLD
413412,SHEILA EVANS,8 BERNADETTE PLACE,HIGHLAND PARK,4211,QLD
432674,CARLY TOMOVIC,31 MITCHELL STREET,ACACIA RIDGE,4110,QLD
431678,JESSICA HARDEE,18 DUNKELD STREET,ACACIA RIDGE,4110,QLD
478943,STEVIE RAY,26 WINDEMERE ROAD,ALBANY CREEK,4035,QLD
452423,JACQUIE PARKER,35 LANCEWOOD DRIVE,ALBANY CREEK,4035,QLD
412533,KIM NI,30 MCLENNAN STREET,ALBION,4010,QLD
412232,TOUC DUONG,12 DIAMOND STREET,ALEXANDRA HILLS,4161,QLD
432123,NARRIE RUPERT,63 MAPLE DRIVE,ANDERGROVE,4740,QLD
421231,LISA WONG,113 PLUCKS ROAD,ARANA HILLS,4054,QLD
